{"type": "FeatureCollection", "features": [{"type": "Feature", "properties": {"norad_id": 2807, "name": "OPS 7218 (TRANSIT 16)", "group": "nnss", "lat": 53.23461720197631, "lon": 173.62949690513042, "alt_km": 1048.559944403889, "timestamp": "2025-12-11T05:00:26.577180+00:00", "meta": {"OBJECT_NAME": "OPS 7218 (TRANSIT 16)", "OBJECT_ID": "1967-048A", "EPOCH": "2025-12-10T18:34:20.767872", "MEAN_MOTION": 13.50721655, "ECCENTRICITY": 0.00218751, "INCLINATION": 89.6732, "RA_OF_ASC_NODE": 354.0815, "ARG_OF_PERICENTER": 119.3253, "MEAN_ANOMALY": 54.3895, "EPHEMERIS_TYPE": 0, "CLASSIFICATION_TYPE": "U", "NORAD_CAT_ID": 2807, "ELEMENT_SET_NO": 999, "REV_AT_EPOCH": 88249, "BSTAR": 0.00020314284, "MEAN_MOTION_DOT": 1.41e-06, "MEAN_MOTION_DDOT": 0}, "tle": {"line1": "1 02807U 67048A   25344.77385148  .00000141  00000+0  20314-3 0  9991", "line2": "2 02807  89.6732 354.0815 0021875 119.3253  54.3895 13.50721655882497"}}, "geometry": {"type": "Point", "coordinates": [173.62949690513042, 53.23461720197631]}}, {"type": "Feature", "properties": {"norad_id": 2965, "name": "OPS 4947 (TRANSIT 17)", "group": "nnss", "lat": 4.242219896391328, "lon": -155.50321772768808, "alt_km": 1046.5404821738866, "timestamp": "2025-12-11T05:00:26.577202+00:00", "meta": {"OBJECT_NAME": "OPS 4947 (TRANSIT 17)", "OBJECT_ID": "1967-092A", "EPOCH": "2025-12-10T21:54:04.522176", "MEAN_MOTION": 13.53452762, "ECCENTRICITY": 0.00460783, "INCLINATION": 89.2497, "RA_OF_ASC_NODE": 24.575, "ARG_OF_PERICENTER": 239.9876, "MEAN_ANOMALY": 294.3166, "EPHEMERIS_TYPE": 0, "CLASSIFICATION_TYPE": "U", "NORAD_CAT_ID": 2965, "ELEMENT_SET_NO": 999, "REV_AT_EPOCH": 87072, "BSTAR": 0.00023079491, "MEAN_MOTION_DOT": 1.67e-06, "MEAN_MOTION_DDOT": 0}, "tle": {"line1": "1 02965U 67092A   25344.91255234  .00000167  00000+0  23079-3 0  9992", "line2": "2 02965  89.2497  24.5750 0046078 239.9876 294.3166 13.53452762870728"}}, "geometry": {"type": "Point", "coordinates": [-155.50321772768808, 4.242219896391328]}}, {"type": "Feature", "properties": {"norad_id": 3133, "name": "OPS 7034 (TRANSIT 18)", "group": "nnss", "lat": -24.15719699491045, "lon": -86.35310827675221, "alt_km": 1124.2670500769773, "timestamp": "2025-12-11T05:00:26.577215+00:00", "meta": {"OBJECT_NAME": "OPS 7034 (TRANSIT 18)", "OBJECT_ID": "1968-012A", "EPOCH": "2025-12-10T18:37:36.266880", "MEAN_MOTION": 13.51564951, "ECCENTRICITY": 0.00736582, "INCLINATION": 90.0278, "RA_OF_ASC_NODE": 273.6332, "ARG_OF_PERICENTER": 174.8207, "MEAN_ANOMALY": 217.6112, "EPHEMERIS_TYPE": 0, "CLASSIFICATION_TYPE": "U", "NORAD_CAT_ID": 3133, "ELEMENT_SET_NO": 999, "REV_AT_EPOCH": 56892, "BSTAR": 0.00025359784, "MEAN_MOTION_DOT": 1.78e-06, "MEAN_MOTION_DDOT": 0}, "tle": {"line1": "1 03133U 68012A   25344.77611420  .00000178  00000+0  25360-3 0  9997", "line2": "2 03133  90.0278 273.6332 0073658 174.8207 217.6112 13.51564951568922"}}, "geometry": {"type": "Point", "coordinates": [-86.35310827675221, -24.15719699491045]}}, {"type": "Feature", "properties": {"norad_id": 4507, "name": "NNSS 19 (TRANSIT 19)", "group": "nnss", "lat": -51.16668311559444, "lon": -125.46040004543062, "alt_km": 949.5760415523719, "timestamp": "2025-12-11T05:00:26.577226+00:00", "meta": {"OBJECT_NAME": "NNSS 19 (TRANSIT 19)", "OBJECT_ID": "1970-067A", "EPOCH": "2025-12-10T06:09:04.713984", "MEAN_MOTION": 13.51314209, "ECCENTRICITY": 0.0170695, "INCLINATION": 90.0056, "RA_OF_ASC_NODE": 234.5321, "ARG_OF_PERICENTER": 300.6377, "MEAN_ANOMALY": 57.8039, "EPHEMERIS_TYPE": 0, "CLASSIFICATION_TYPE": "U", "NORAD_CAT_ID": 4507, "ELEMENT_SET_NO": 999, "REV_AT_EPOCH": 72188, "BSTAR": 0.00026981, "MEAN_MOTION_DOT": 1.99e-06, "MEAN_MOTION_DDOT": 0}, "tle": {"line1": "1 04507U 70067A   25344.25630456  .00000199  00000+0  26981-3 0  9992", "line2": "2 04507  90.0056 234.5321 0170695 300.6377  57.8039 13.51314209721889"}}, "geometry": {"type": "Point", "coordinates": [-125.46040004543062, -51.16668311559444]}}, {"type": "Feature", "properties": {"norad_id": 6909, "name": "NNSS 20 (TRANSIT 20)", "group": "nnss", "lat": -89.73223184632062, "lon": -137.40143072665776, "alt_km": 1116.4145097196651, "timestamp": "2025-12-11T05:00:26.577237+00:00", "meta": {"OBJECT_NAME": "NNSS 20 (TRANSIT 20)", "OBJECT_ID": "1973-081A", "EPOCH": "2025-12-10T17:11:41.064000", "MEAN_MOTION": 13.71432763, "ECCENTRICITY": 0.01566118, "INCLINATION": 89.8563, "RA_OF_ASC_NODE": 255.0844, "ARG_OF_PERICENTER": 84.3061, "MEAN_ANOMALY": 277.5936, "EPHEMERIS_TYPE": 0, "CLASSIFICATION_TYPE": "U", "NORAD_CAT_ID": 6909, "ELEMENT_SET_NO": 999, "REV_AT_EPOCH": 80333, "BSTAR": 0.00033403601, "MEAN_MOTION_DOT": 3.4e-06, "MEAN_MOTION_DDOT": 0}, "tle": {"line1": "1 06909U 73081A   25344.71644750  .00000340  00000+0  33404-3 0  9998", "line2": "2 06909  89.8563 255.0844 0156611  84.3061 277.5936 13.71432763803338"}}, "geometry": {"type": "Point", "coordinates": [-137.40143072665776, -89.73223184632062]}}, {"type": "Feature", "properties": {"norad_id": 10457, "name": "TRANSAT", "group": "nnss", "lat": -33.31096071622365, "lon": 78.41989675824229, "alt_km": 1095.0680346225054, "timestamp": "2025-12-11T05:00:26.577248+00:00", "meta": {"OBJECT_NAME": "TRANSAT", "OBJECT_ID": "1977-106A", "EPOCH": "2025-12-10T17:29:48.058944", "MEAN_MOTION": 13.48943195, "ECCENTRICITY": 0.00252032, "INCLINATION": 89.6482, "RA_OF_ASC_NODE": 78.6682, "ARG_OF_PERICENTER": 195.3496, "MEAN_ANOMALY": 323.5194, "EPHEMERIS_TYPE": 0, "CLASSIFICATION_TYPE": "U", "NORAD_CAT_ID": 10457, "ELEMENT_SET_NO": 999, "REV_AT_EPOCH": 36716, "BSTAR": 0.00019661222, "MEAN_MOTION_DOT": 1.33e-06, "MEAN_MOTION_DDOT": 0}, "tle": {"line1": "1 10457U 77106A   25344.72902846  .00000133  00000+0  19661-3 0  9996", "line2": "2 10457  89.6482  78.6682 0025203 195.3496 323.5194 13.48943195367169"}}, "geometry": {"type": "Point", "coordinates": [78.41989675824229, -33.31096071622365]}}, {"type": "Feature", "properties": {"norad_id": 12458, "name": "NOVA 1", "group": "nnss", "lat": 9.0916699858443, "lon": 91.43042325543807, "alt_km": 1175.6211414511945, "timestamp": "2025-12-11T05:00:26.577258+00:00", "meta": {"OBJECT_NAME": "NOVA 1", "OBJECT_ID": "1981-044A", "EPOCH": "2025-12-10T18:50:58.356960", "MEAN_MOTION": 13.23278241, "ECCENTRICITY": 0.00158733, "INCLINATION": 89.8524, "RA_OF_ASC_NODE": 91.4128, "ARG_OF_PERICENTER": 108.7936, "MEAN_ANOMALY": 45.5089, "EPHEMERIS_TYPE": 0, "CLASSIFICATION_TYPE": "U", "NORAD_CAT_ID": 12458, "ELEMENT_SET_NO": 999, "REV_AT_EPOCH": 15160, "BSTAR": 0.00017052083, "MEAN_MOTION_DOT": 8.1e-07, "MEAN_MOTION_DDOT": 0}, "tle": {"line1": "1 12458U 81044A   25344.78539765  .00000081  00000+0  17052-3 0  9991", "line2": "2 12458  89.8524  91.4128 0015873 108.7936  45.5089 13.23278241151608"}}, "geometry": {"type": "Point", "coordinates": [91.43042325543807, 9.0916699858443]}}, {"type": "Feature", "properties": {"norad_id": 15362, "name": "NOVA 3", "group": "nnss", "lat": -63.05824919084542, "lon": -99.7242048914598, "alt_km": 1181.662649486675, "timestamp": "2025-12-11T05:00:26.577268+00:00", "meta": {"OBJECT_NAME": "NOVA 3", "OBJECT_ID": "1984-110A", "EPOCH": "2025-12-10T17:39:44.936064", "MEAN_MOTION": 13.23044354, "ECCENTRICITY": 0.00306283, "INCLINATION": 90.1224, "RA_OF_ASC_NODE": 80.5112, "ARG_OF_PERICENTER": 337.6446, "MEAN_ANOMALY": 175.5409, "EPHEMERIS_TYPE": 0, "CLASSIFICATION_TYPE": "U", "NORAD_CAT_ID": 15362, "ELEMENT_SET_NO": 999, "REV_AT_EPOCH": 98672, "BSTAR": 0.00024680094, "MEAN_MOTION_DOT": 1.12e-06, "MEAN_MOTION_DDOT": 0}, "tle": {"line1": "1 15362U 84110A   25344.73593676  .00000112  00000+0  24680-3 0  9991", "line2": "2 15362  90.1224  80.5112 0030628 337.6446 175.5409 13.23044354986728"}}, "geometry": {"type": "Point", "coordinates": [-99.7242048914598, -63.05824919084542]}}, {"type": "Feature", "properties": {"norad_id": 15935, "name": "OSCAR 30", "group": "nnss", "lat": -72.93798777534478, "lon": -80.71568872198988, "alt_km": 1253.8267239074594, "timestamp": "2025-12-11T05:00:26.577279+00:00", "meta": {"OBJECT_NAME": "OSCAR 30", "OBJECT_ID": "1985-066A", "EPOCH": "2025-12-10T19:31:00.802272", "MEAN_MOTION": 13.36077983, "ECCENTRICITY": 0.01694212, "INCLINATION": 90.1649, "RA_OF_ASC_NODE": 99.8155, "ARG_OF_PERICENTER": 89.2809, "MEAN_ANOMALY": 62.2144, "EPHEMERIS_TYPE": 0, "CLASSIFICATION_TYPE": "U", "NORAD_CAT_ID": 15935, "ELEMENT_SET_NO": 999, "REV_AT_EPOCH": 96427, "BSTAR": 0.00025912259, "MEAN_MOTION_DOT": 1.54e-06, "MEAN_MOTION_DDOT": 0}, "tle": {"line1": "1 15935U 85066A   25344.81320373  .00000154  00000+0  25912-3 0  9994", "line2": "2 15935  90.1649  99.8155 0169421  89.2809  62.2144 13.36077983964274"}}, "geometry": {"type": "Point", "coordinates": [-80.71568872198988, -72.93798777534478]}}, {"type": "Feature", "properties": {"norad_id": 15936, "name": "OSCAR 24", "group": "nnss", "lat": -33.14918382846541, "lon": 92.39521715514111, "alt_km": 1207.360601592468, "timestamp": "2025-12-11T05:00:26.577289+00:00", "meta": {"OBJECT_NAME": "OSCAR 24", "OBJECT_ID": "1985-066B", "EPOCH": "2025-12-10T13:03:08.404128", "MEAN_MOTION": 13.35935362, "ECCENTRICITY": 0.0170487, "INCLINATION": 90.1789, "RA_OF_ASC_NODE": 92.2666, "ARG_OF_PERICENTER": 96.4685, "MEAN_ANOMALY": 276.6807, "EPHEMERIS_TYPE": 0, "CLASSIFICATION_TYPE": "U", "NORAD_CAT_ID": 15936, "ELEMENT_SET_NO": 999, "REV_AT_EPOCH": 96614, "BSTAR": 0.00022344, "MEAN_MOTION_DOT": 1.34e-06, "MEAN_MOTION_DDOT": 0}, "tle": {"line1": "1 15936U 85066B   25344.54384727  .00000134  00000+0  22344-3 0  9992", "line2": "2 15936  90.1789  92.2666 0170487  96.4685 276.6807 13.35935362966148"}}, "geometry": {"type": "Point", "coordinates": [92.39521715514111, -33.14918382846541]}}]}